H1 CPF 01  gfz 2022 08 01 12  7132 terrasarx 
H2 0702601  6201 31698    2022 08 01 12 59 42 2022 08 06 00 00 42   120 1 1  0 0 0
H9
10 0 59793  76302.000000  0      18725.624  -1328133.769   6748441.913
10 0 59793  76422.000000  0    -608007.776   -657777.083   6819157.719
10 0 59793  76542.000000  0   -1212206.275     34827.079   6770060.897
10 0 59793  76662.000000  0   -1783049.303    737106.017   6602006.772
10 0 59793  76782.000000  0   -2310516.384   1436133.249   6317927.363
10 0 59793  76902.000000  0   -2785563.523   2118865.461   5922783.483
10 0 59793  77022.000000  0   -3200279.776   2772385.809   5423483.919
10 0 59793  77142.000000  0   -3548022.432   3384150.105   4828771.162
10 0 59793  77262.000000  0   -3823527.820   3942230.542   4149074.101
10 0 59793  77382.000000  0   -4022994.978   4435553.234   3396329.707
10 0 59793  77502.000000  0   -4144140.313   4854124.121   2583775.245
10 0 59793  77622.000000  0   -4186221.157   5189236.839   1725713.461
10 0 59793  77742.000000  0   -4150027.676   5433657.447    837256.980
10 0 59793  77862.000000  0   -4037844.455   5581782.159    -65943.560
10 0 59793  77982.000000  0   -3853381.478   5629764.478   -967984.113
10 0 59793  78102.000000  0   -3601674.577   5575605.793  -1852998.070
10 0 59793  78222.000000  0   -3288958.933   5419207.082  -2705444.271
10 0 59793  78342.000000  0   -2922519.099   5162383.165  -3510385.555
10 0 59793  78462.000000  0   -2510521.554   4808837.167  -4253753.098
10 0 59793  78582.000000  0   -2061832.989   4364098.215  -4922590.376
10 0 59793  78702.000000  0   -1585829.738   3835425.659  -5505272.106
10 0 59793  78822.000000  0   -1092203.145   3231682.903  -5991698.428
10 0 59793  78942.000000  0    -590763.548   2563181.150  -6373460.726
10 0 59793  79062.000000  0     -91247.504   1841498.003  -6643975.053
10 0 59793  79182.000000  0     396866.889   1079275.991  -6798584.603
10 0 59793  79302.000000  0     864535.142    290003.203  -6834631.980
10 0 59793  79422.000000  0    1303310.368   -512221.240  -6751500.036
10 0 59793  79542.000000  0    1705491.726  -1312933.797  -6550619.732
10 0 59793  79662.000000  0    2064256.169  -2097560.058  -6235447.848
10 0 59793  79782.000000  0    2373773.040  -2851673.379  -5811414.481
10 0 59793  79902.000000  0    2629299.230  -3561256.907  -5285840.940
10 0 59793  80022.000000  0    2827254.050  -4212965.564  -4667823.657
10 0 59793  80142.000000  0    2965270.128  -4794378.201  -3968085.849
10 0 59793  80262.000000  0    3042220.909  -5294238.428  -3198802.642
10 0 59793  80382.000000  0    3058224.095  -5702681.632  -2373397.524
10 0 59793  80502.000000  0    3014619.866  -6011438.847  -1506311.578
10 0 59793  80622.000000  0    2913924.315  -6214013.504   -612750.797
10 0 59793  80742.000000  0    2759757.281  -6305825.770    291585.480
10 0 59793  80862.000000  0    2556746.703  -6284318.286   1190787.034
10 0 59793  80982.000000  0    2310412.694  -6149023.764   2069021.052
10 0 59793  81102.000000  0    2027032.738  -5901588.620   2910821.339
10 0 59793  81222.000000  0    1713492.392  -5545752.844   3701367.938
10 0 59793  81342.000000  0    1377125.188  -5087289.239   4426752.940
10 0 59793  81462.000000  0    1025546.674  -4533902.908   5074227.630
10 0 59793  81582.000000  0     666485.973  -3895094.106   5632427.841
10 0 59793  81702.000000  0     307618.053  -3181984.656   6091571.352
10 0 59793  81822.000000  0     -43597.742  -2407115.360   6443622.844
10 0 59793  81942.000000  0    -380070.188  -1584220.432   6682427.462
10 0 59793  82062.000000  0    -695217.036   -727981.870   6803812.949
10 0 59793  82182.000000  0    -983092.282    146234.008   6805659.134
10 0 59793  82302.000000  0   -1238497.632   1022652.758   6687932.643
10 0 59793  82422.000000  0   -1457075.930   1885375.859   6452687.114
10 0 59793  82542.000000  0   -1635385.637   2718668.385   6104029.816
10 0 59793  82662.000000  0   -1770955.456   3507246.520   5648054.203
10 0 59793  82782.000000  0   -1862317.567   4236559.835   5092739.157
10 0 59793  82902.000000  0   -1909019.772   4893064.927   4447816.429
10 0 59793  83022.000000  0   -1911615.750   5464484.447   3724604.856
10 0 59793  83142.000000  0   -1871633.381   5940045.604   2935814.601
10 0 59793  83262.000000  0   -1791522.490   6310692.097   2095323.720
10 0 59793  83382.000000  0   -1674581.896   6569265.655   1217931.207
10 0 59793  83502.000000  0   -1524866.959   6710651.276    319090.815
10 0 59793  83622.000000  0   -1347081.077   6731882.696   -585368.182
10 0 59793  83742.000000  0   -1146453.570   6632206.483  -1479529.363
10 0 59793  83862.000000  0    -928605.762   6413098.036  -2347680.836
10 0 59793  83982.000000  0    -699411.160   6078230.478  -3174597.823
10 0 59793  84102.000000  0    -464852.842   5633402.301  -3945811.749
10 0 59793  84222.000000  0    -230881.149   5086425.703  -4647863.397
10 0 59793  84342.000000  0      -3275.240   4446977.082  -5268534.311
10 0 59793  84462.000000  0     212488.801   3726415.027  -5797052.891
10 0 59793  84582.000000  0     411360.032   2937568.878  -6224272.390
10 0 59793  84702.000000  0     588821.819   2094503.615  -6542817.689
10 0 59793  84822.000000  0     740986.971   1212267.499  -6747201.019
10 0 59793  84942.000000  0     864677.244    306625.274  -6833907.155
10 0 59793  85062.000000  0     957485.815   -606219.114  -6801447.364
10 0 59793  85182.000000  0    1017821.926  -1509906.566  -6650380.982
10 0 59793  85302.000000  0    1044937.354  -2388207.568  -6383305.467
10 0 59793  85422.000000  0    1038935.151  -3225305.929  -6004818.278
10 0 59793  85542.000000  0    1000759.231  -4006081.225  -5521447.669
10 0 59793  85662.000000  0     932165.117  -4716381.840  -4941549.339
10 0 59793  85782.000000  0     835673.360  -5343283.920  -4275173.533
10 0 59793  85902.000000  0     714504.769  -5875334.026  -3533901.853
10 0 59793  86022.000000  0     572499.020  -6302768.429  -2730654.020
10 0 59793  86142.000000  0     414018.510  -6617704.276  -1879468.456
10 0 59793  86262.000000  0     243839.170  -6814298.401   -995258.286
10 0 59793  86382.000000  0      67030.362  -6888867.058    -93547.049
10 0 59794    102.000000  0    -111173.036  -6839963.589    809809.178
10 0 59794    222.000000  0    -285502.963  -6668412.630   1698907.855
10 0 59794    342.000000  0    -450791.826  -6377298.909   2558089.340
10 0 59794    462.000000  0    -602103.716  -5971909.384   3372222.689
10 0 59794    582.000000  0    -734859.144  -5459628.787   4126979.258
10 0 59794    702.000000  0    -844951.584  -4849796.553   4809087.786
10 0 59794    822.000000  0    -928852.023  -4153526.966   5406568.878
10 0 59794    942.000000  0    -983699.071  -3383497.289   5908944.590
10 0 59794   1062.000000  0   -1007373.242  -2553706.521   6307418.663
10 0 59794   1182.000000  0    -998552.937  -1679213.784   6595022.669
10 0 59794   1302.000000  0    -956752.144   -775862.585   6766731.633
10 0 59794   1422.000000  0    -882340.112    140008.038   6819547.462
10 0 59794   1542.000000  0    -776541.373   1051859.175   6752548.021
10 0 59794   1662.000000  0    -641415.231   1943250.304   6566902.466
10 0 59794   1782.000000  0    -479815.913   2798135.247   6265851.984
10 0 59794   1902.000000  0    -295334.277   3601151.189   5854656.850
10 0 59794   2022.000000  0     -92222.303   4337897.269   5340509.648
10 0 59794   2142.000000  0     124699.107   4995196.949   4732415.593
10 0 59794   2262.000000  0     350147.537   5561342.030   4041040.660
10 0 59794   2382.000000  0     578498.671   6026307.687   3278526.810
10 0 59794   2502.000000  0     803916.012   6381941.661   2458285.581
10 0 59794   2622.000000  0    1020490.205   6622120.765   1594756.619
10 0 59794   2742.000000  0    1222380.511   6742861.844    703148.022
10 0 59794   2862.000000  0    1403957.275   6742392.085   -200839.006
10 0 59794   2982.000000  0    1559941.205   6621174.577  -1101294.891
10 0 59794   3102.000000  0    1685535.186   6381889.144  -1982389.599
10 0 59794   3222.000000  0    1776546.169   6029369.884  -2828657.971
10 0 59794   3342.000000  0    1829493.916   5570500.249  -3625276.833
10 0 59794   3462.000000  0    1841704.032   5014068.177  -4358327.556
10 0 59794   3582.000000  0    1811383.043   4370585.378  -5015037.727
10 0 59794   3702.000000  0    1737673.792   3652077.583  -5583997.516
10 0 59794   3822.000000  0    1620691.099   2871851.464  -6055349.470
10 0 59794   3942.000000  0    1461536.012   2044241.652  -6420948.689
10 0 59794   4062.000000  0    1262289.774   1184345.537  -6674491.315
10 0 59794   4182.000000  0    1025988.169    307749.902  -6811613.514
10 0 59794   4302.000000  0     756575.300   -569747.717  -6829958.616
10 0 59794   4422.000000  0     458838.246  -1432417.997  -6729211.986
10 0 59794   4542.000000  0     138324.151  -2264873.659  -6511104.511
10 0 59794   4662.000000  0    -198759.565  -3052336.573  -6179387.878
10 0 59794   4782.000000  0    -545661.910  -3780897.413  -5739777.546
10 0 59794   4902.000000  0    -895218.336  -4437759.880  -5199863.498
10 0 59794   5022.000000  0   -1239993.278  -5011468.366  -4568991.225
10 0 59794   5142.000000  0   -1572433.435  -5492114.623  -3858111.135
10 0 59794   5262.000000  0   -1885028.380  -5871518.303  -3079597.727
10 0 59794   5382.000000  0   -2170474.968  -6143377.173  -2247041.119
10 0 59794   5502.000000  0   -2421842.168  -6303383.912  -1375013.469
10 0 59794   5622.000000  0   -2632732.234  -6349305.730   -478813.086
10 0 59794   5742.000000  0   -2797434.077  -6281022.795    425809.058
10 0 59794   5862.000000  0   -2911064.320  -6100523.647   1322933.604
10 0 59794   5982.000000  0   -2969692.460  -5811858.153   2196761.892
10 0 59794   6102.000000  0   -2970446.675  -5421048.303   3031903.298
10 0 59794   6222.000000  0   -2911597.322  -4935959.773   3813653.855
10 0 59794   6342.000000  0   -2792616.219  -4366138.011   4528260.388
99
